$$SOE
2460154.500000000, A.D. 2023-Jul-29 00:00:00.0000, -3.108675440128917E+08, -2.449456441236347E+07, 4.010610663773060E+06,
2460161.500000000, A.D. 2023-Aug-05 00:00:00.0000, -3.095977331781943E+08, -3.739756407924269E+07, 3.390629005436825E+06,
2460168.500000000, A.D. 2023-Aug-12 00:00:00.0000, -3.078325621183174E+08, -5.024073412831053E+07, 2.765223463469051E+06,
2460175.500000000, A.D. 2023-Aug-19 00:00:00.0000, -3.055750993722565E+08, -6.300356622926586E+07, 2.135397044581141E+06,
2460182.500000000, A.D. 2023-Aug-26 00:00:00.0000, -3.028293900766020E+08, -7.566574078173822E+07, 1.502160160025544E+06,
2460189.500000000, A.D. 2023-Sep-02 00:00:00.0000, -2.996004416577305E+08, -8.820718274791694E+07, 8.665277963292301E+05,
2460196.500000000, A.D. 2023-Sep-09 00:00:00.0000, -2.958942055616102E+08, -1.006081162414634E+08, 2.295166725253388E+05,
2460203.500000000, A.D. 2023-Sep-16 00:00:00.0000, -2.917175550053396E+08, -1.128491175967310E+08, -4.078576181882843E+05,
2460210.500000000, A.D. 2023-Sep-23 00:00:00.0000, -2.870782585196134E+08, -1.249111663166887E+08, -1.044583479350239E+06,
2460217.500000000, A.D. 2023-Sep-30 00:00:00.0000, -2.819849498362379E+08, -1.367756924166013E+08, -1.679656048994049E+06,
2460224.500000000, A.D. 2023-Oct-07 00:00:00.0000, -2.764470967147495E+08, -1.484246204414960E+08, -2.312079616421022E+06,
2460231.500000000, A.D. 2023-Oct-14 00:00:00.0000, -2.704749679353794E+08, -1.598404132379202E+08, -2.940870069122046E+06,
2460238.500000000, A.D. 2023-Oct-21 00:00:00.0000, -2.640795955204374E+08, -1.710061136747768E+08, -3.565057520879768E+06,
2460245.500000000, A.D. 2023-Oct-28 00:00:00.0000, -2.572727339107786E+08, -1.819053818780426E+08, -4.183688792071082E+06,
2460252.500000000, A.D. 2023-Nov-04 00:00:00.0000, -2.500668176545721E+08, -1.925225286068710E+08, -4.795829678051591E+06,
2460259.500000000, A.D. 2023-Nov-11 00:00:00.0000, -2.424749177436583E+08, -2.028425452666227E+08, -5.400567060654134E+06,
2460266.500000000, A.D. 2023-Nov-18 00:00:00.0000, -2.345106966984138E+08, -2.128511305568288E+08, -5.997010879961863E+06,
2460273.500000000, A.D. 2023-Nov-25 00:00:00.0000, -2.261883626511780E+08, -2.225347136972149E+08, -6.584295964241266E+06,
2460280.500000000, A.D. 2023-Dec-02 00:00:00.0000, -2.175226227169318E+08, -2.318804742382016E+08, -7.161583715789855E+06,
2460287.500000000, A.D. 2023-Dec-09 00:00:00.0000, -2.085286358799509E+08, -2.408763585401481E+08, -7.728063660495102E+06,
2460294.500000000, A.D. 2023-Dec-16 00:00:00.0000, -1.992219654034181E+08, -2.495110929633805E+08, -8.282954883991942E+06,
2460301.500000000, A.D. 2023-Dec-23 00:00:00.0000, -1.896185306939974E+08, -2.577741931626713E+08, -8.825507329309851E+06,
2460308.500000000, A.D. 2023-Dec-30 00:00:00.0000, -1.797345602246828E+08, -2.656559685410475E+08, -9.355002747897431E+06,
2460315.500000000, A.D. 2024-Jan-06 00:00:00.0000, -1.695865475315369E+08, -2.731475243497661E+08, -9.870755336560518E+06,
2460322.500000000, A.D. 2024-Jan-13 00:00:00.0000, -1.591912073366925E+08, -2.802407633905559E+08, -1.037211250282604E+07,
2460329.500000000, A.D. 2024-Jan-20 00:00:00.0000, -1.485654307820503E+08, -2.869283844019099E+08, -1.085845562365530E+07,
2460336.500000000, A.D. 2024-Jan-27 00:00:00.0000, -1.377262419897937E+08, -2.932038766526539E+08, -1.132920056336127E+07,
2460343.500000000, A.D. 2024-Feb-03 00:00:00.0000, -1.266907565433894E+08, -2.990615118714926E+08, -1.178379799446915E+07,
2460350.500000000, A.D. 2024-Feb-10 00:00:00.0000, -1.154761417525022E+08, -3.044963339842998E+08, -1.222173357635967E+07,
2460357.500000000, A.D. 2024-Feb-17 00:00:00.0000, -1.040995786753231E+08, -3.095041468329214E+08, -1.264252800981127E+07,
2460364.500000000, A.D. 2024-Feb-24 00:00:00.0000, -9.257822594675644E+07, -3.140815000497102E+08, -1.304573697670880E+07,
2460371.500000000, A.D. 2024-Mar-02 00:00:00.0000, -8.092918544681928E+07, -3.182256733204202E+08, -1.343095097891787E+07,
2460378.500000000, A.D. 2024-Mar-09 00:00:00.0000, -6.916946972113819E+07, -3.219346593049715E+08, -1.379779510387889E+07,
2460385.500000000, A.D. 2024-Mar-16 00:00:00.0000, -5.731597079820672E+07, -3.252071452220167E+08, -1.414592874667285E+07,
2460392.500000000, A.D. 2024-Mar-23 00:00:00.0000, -4.538543053304172E+07, -3.280424921796222E+08, -1.447504519713773E+07,
2460399.500000000, A.D. 2024-Mar-30 00:00:00.0000, -3.339441472626718E+07, -3.304407124554263E+08, -1.478487089652176E+07,
2460406.500000000, A.D. 2024-Apr-06 00:00:00.0000, -2.135929075086822E+07, -3.324024482592987E+08, -1.507516467006060E+07,
2460413.500000000, A.D. 2024-Apr-13 00:00:00.0000, -9.296205108227966E+06, -3.339289513027020E+08, -1.534571720065996E+07,
2460420.500000000, A.D. 2024-Apr-20 00:00:00.0000, 2.778938172221540E+06, -3.350220606520214E+08, -1.559635044517337E+07,
2460427.500000000, A.D. 2024-Apr-27 00:00:00.0000, 1.485049682015111E+07, -3.356841795702806E+08, -1.582691690721019E+07,
2460434.500000000, A.D. 2024-May-04 00:00:00.0000, 2.690310744226901E+07, -3.359182521829389E+08, -1.603729883890982E+07,
2460441.500000000, A.D. 2024-May-11 00:00:00.0000, 3.892170077224831E+07, -3.357277401910720E+08, -1.622740740838279E+07,
2460448.500000000, A.D. 2024-May-18 00:00:00.0000, 5.089151520357981E+07, -3.351165997201326E+08, -1.639718184474973E+07,
2460455.500000000, A.D. 2024-May-25 00:00:00.0000, 6.279810870538034E+07, -3.340892584106400E+08, -1.654658856958383E+07,
2460462.500000000, A.D. 2024-Jun-01 00:00:00.0000, 7.462736926128156E+07, -3.326505928998279E+08, -1.667562033058056E+07,
2460469.500000000, A.D. 2024-Jun-08 00:00:00.0000, 8.636552415965074E+07, -3.308059068016975E+08, -1.678429536699183E+07,
2460476.500000000, A.D. 2024-Jun-15 00:00:00.0000, 9.799914861634181E+07, -3.285609087155195E+08, -1.687265660338679E+07,
2460483.500000000, A.D. 2024-Jun-22 00:00:00.0000, 1.095151728060056E+08, -3.259216891518514E+08, -1.694077068749173E+07,
2460490.500000000, A.D. 2024-Jun-29 00:00:00.0000, 1.209008852609822E+08, -3.228946982490919E+08, -1.698872682988708E+07,
2460497.500000000, A.D. 2024-Jul-06 00:00:00.0000, 1.321439353639337E+08, -3.194867267939007E+08, -1.701663589335607E+07,
2460504.500000000, A.D. 2024-Jul-13 00:00:00.0000, 1.432323369645302E+08, -3.157048877582168E+08, -1.702462968266496E+07,
2460511.500000000, A.D. 2024-Jul-20 00:00:00.0000, 1.541544712132571E+08, -3.115565972341422E+08, -1.701286016093275E+07,
2460518.500000000, A.D. 2024-Jul-27 00:00:00.0000, 1.648990880335796E+08, -3.070495557472796E+08, -1.698149861261700E+07,
2460525.500000000, A.D. 2024-Aug-03 00:00:00.0000, 1.754553065824580E+08, -3.021917303382482E+08, -1.693073481054808E+07,
2460532.500000000, A.D. 2024-Aug-10 00:00:00.0000, 1.858126149410875E+08, -2.969913374280431E+08, -1.686077620451815E+07,
2460539.500000000, A.D. 2024-Aug-17 00:00:00.0000, 1.959608691561358E+08, -2.914568264539385E+08, -1.677184713609415E+07,
2460546.500000000, A.D. 2024-Aug-24 00:00:00.0000, 2.058902917276108E+08, -2.855968643024404E+08, -1.666418808615673E+07,
2460553.500000000, A.D. 2024-Aug-31 00:00:00.0000, 2.155914697237864E+08, -2.794203206001335E+08, -1.653805497270322E+07,
2460560.500000000, A.D. 2024-Sep-07 00:00:00.0000, 2.250553529514213E+08, -2.729362537328692E+08, -1.639371852352305E+07,
2460567.500000000, A.D. 2024-Sep-14 00:00:00.0000, 2.342732523254345E+08, -2.661538965933266E+08, -1.623146365099379E+07,
2460574.500000000, A.D. 2024-Sep-21 00:00:00.0000, 2.432368364619631E+08, -2.590826416365119E+08, -1.605158860962616E+07,
2460581.500000000, A.D. 2024-Sep-28 00:00:00.0000, 2.519381260547929E+08, -2.517320284556397E+08, -1.585440415568355E+07,
2460588.500000000, A.D. 2024-Oct-05 00:00:00.0000, 2.603694897515762E+08, -2.441117338568814E+08, -1.564023304549313E+07,
2460595.500000000, A.D. 2024-Oct-12 00:00:00.0000, 2.685236412163278E+08, -2.362315614343964E+08, -1.540940959581275E+07,
2460602.500000000, A.D. 2024-Oct-19 00:00:00.0000, 2.763936356713872E+08, -2.281014308990465E+08, -1.516227916756681E+07,
2460609.500000000, A.D. 2024-Oct-26 00:00:00.0000, 2.839728659261692E+08, -2.197313679439153E+08, -1.489919763507096E+07,
2460616.500000000, A.D. 2024-Nov-02 00:00:00.0000, 2.912550581848997E+08, -2.111314947756224E+08, -1.462053087586598E+07,
2460623.500000000, A.D. 2024-Nov-09 00:00:00.0000, 2.982342677593334E+08, -2.023120212693154E+08, -1.432665428753953E+07,
2460630.500000000, A.D. 2024-Nov-16 00:00:00.0000, 3.049048747371424E+08, -1.932832367220284E+08, -1.401795233307120E+07,
2460637.500000000, A.D. 2024-Nov-23 00:00:00.0000, 3.112615796760315E+08, -1.840555022252046E+08, -1.369481812247885E+07,
2460644.500000000, A.D. 2024-Nov-30 00:00:00.0000, 3.172993995570922E+08, -1.746392436677938E+08, -1.335765305302125E+07,
2460651.500000000, A.D. 2024-Dec-07 00:00:00.0000, 3.230136644469959E+08, -1.650449449205144E+08, -1.300686651160894E+07,
2460658.500000000, A.D. 2024-Dec-14 00:00:00.0000, 3.284000142131743E+08, -1.552831399566425E+08, -1.264287547535919E+07,
2460665.500000000, A.D. 2024-Dec-21 00:00:00.0000, 3.334543929990767E+08, -1.453644051353843E+08, -1.226610389800366E+07,
2460672.500000000, A.D. 2024-Dec-28 00:00:00.0000, 3.381730434462067E+08, -1.352993545961591E+08, -1.187698230460578E+07,
2460679.500000000, A.D. 2025-Jan-04 00:00:00.0000, 3.425525032714938E+08, -1.250986363626273E+08, -1.147594763752756E+07,
2460686.500000000, A.D. 2025-Jan-11 00:00:00.0000, 3.465896023921764E+08, -1.147729274716317E+08, -1.106344304974152E+07,
2460693.500000000, A.D. 2025-Jan-18 00:00:00.0000, 3.502814596942553E+08, -1.043329290220762E+08, -1.063991763528601E+07,
2460700.500000000, A.D. 2025-Jan-25 00:00:00.0000, 3.536254796994319E+08, -9.378936159476770E+07, -1.020582615682861E+07,
2460707.500000000, A.D. 2025-Feb-01 00:00:00.0000, 3.566193493303040E+08, -8.315296105006287E+07, -9.761628789034359E+06,
2460714.500000000, A.D. 2025-Feb-08 00:00:00.0000, 3.592610348416580E+08, -7.243447466080339E+07, -9.307790880345222E+06,
$$EOE